SWARM A                 
1 39452U 13067B   26162.79963966  .00009811  00000+0  16929-3 0  9990
2 39452  87.3335  58.2427 0002986  93.7831 266.3771 15.50844737705411
SWARM C                 
1 39453U 13067C   26162.79952088  .00009770  00000+0  16857-3 0  9998
2 39453  87.3335  56.8239 0002981  94.1070 266.0532 15.50847092705376
BRITE-CA1 (TORONTO)     
1 40020U 14033L   26162.33043878  .00000569  00000+0  93437-4 0  9999
2 40020  97.9731 291.3666 0077352 296.0994  63.2268 14.72668490641353
OCO 2                   
1 40059U 14035A   26162.79924825  .00000329  00000+0  83077-4 0  9996
2 40059  98.2018 104.1744 0001488  86.1758 273.9611 14.57106853635266
BRITE-PL2 (HEWELIUSZ)   
1 40119U 14049B   26162.61554125  .00001285  00000+0  12409-3 0  9993
2 40119  97.9092 274.5729 0015129 124.9359 235.3285 14.94576660640613
MMS 1                   
1 40482U 15011A   26162.91668980 -.00000095  00000+0  00000+0 0  9993
2 40482  72.1085 348.8571 8320725 167.3535 120.7784  0.28375347  1386
MMS 2                   
1 40483U 15011B   26162.91668980 -.00000094  00000+0  00000+0 0  9993
2 40483  72.1074 348.8597 8321507 167.3596 120.7634  0.28375290  1380
MMS 3                   
1 40484U 15011C   26162.91668980 -.00000094  00000+0  00000+0 0  9994
2 40484  72.1106 348.8642 8320691 167.3541 120.7595  0.28375249  1381
MMS 4                   
1 40485U 15011D   26162.91668980 -.00000094  00000+0  00000+0 0  9995
2 40485  72.1078 348.8596 8320300 167.3614 120.7514  0.28375317  1383
ASTROSAT                
1 40930U 15052A   26162.64229951  .00001460  00000+0  95981-4 0  9990
2 40930   5.9951 195.2696 0008438 313.6900  46.2529 14.82498132579001
DAMPE                   
1 41173U 15078A   26162.80820829  .00001034  00000+0  37304-4 0  9999
2 41173  97.4561 168.2485 0013810  93.8225 266.4595 15.30770769583723
PISAT                   
1 41784U 16059B   26162.55851389  .00000816  00000+0  14650-3 0  9999
2 41784  97.8179 163.2532 0027957 221.2985 138.6107 14.68974237518919
HXMT (HUIYAN)           
1 42758U 17034A   26162.60889608  .00004085  00000+0  20409-3 0  9997
2 42758  43.0133 214.1024 0030214 110.4509 249.9587 15.18442350496811
FLYING LAPTOP           
1 42831U 17042G   26162.85285105  .00002843  00000+0  22570-3 0  9998
2 42831  97.4661 318.5922 0019332 139.0275 221.2406 15.01111056485654
ZHANGHENG 1-01 (CSES-1) 
1 43194U 18015C   26162.87519030  .00006729  00000+0  30788-3 0  9998
2 43194  97.6861 328.4281 0017074 286.4185  73.5173 15.20743862463839
SALSAT                  
1 46495U 20068K   26162.58556220  .00006923  00000+0  24314-3 0  9990
2 46495  97.8849 165.3093 0008526 331.4069  28.6701 15.29719030314503
IXPE                    
1 49954U 21121A   26162.83335647  .00011011  00000+0  59856-3 0  9993
2 49954   0.2310 357.6987 0007070   0.2067 285.9152 15.10201315  5661
SMILE                   
1 69123U 26109A   26144.65318427 -.00001976  00000+0 -42379-3 0  9994
2 69123  70.0007 229.2745 0009123 259.5159 100.4951 14.57062785   802
